[{"OBJECT_NAME":"STARLINK-30874","OBJECT_ID":"2023-170X","EPOCH":"2026-03-09T09:03:46.350720","MEAN_MOTION":15.26726036,"ECCENTRICITY":0.00017189,"INCLINATION":43.0017,"RA_OF_ASC_NODE":195.8134,"ARG_OF_PERICENTER":286.1371,"MEAN_ANOMALY":73.9291,"EPHEMERIS_TYPE":0,"CLASSIFICATION_TYPE":"U","NORAD_CAT_ID":58227,"ELEMENT_SET_NO":999,"REV_AT_EPOCH":13025,"BSTAR":-0.00011224497,"MEAN_MOTION_DOT":-3.268e-5,"MEAN_MOTION_DDOT":0},{"OBJECT_NAME":"CZ-6A DEB","OBJECT_ID":"2022-151TQ","EPOCH":"2026-03-09T06:57:26.684352","MEAN_MOTION":15.22919125,"ECCENTRICITY":0.00409545,"INCLINATION":98.8216,"RA_OF_ASC_NODE":191.4692,"ARG_OF_PERICENTER":160.8215,"MEAN_ANOMALY":199.457,"EPHEMERIS_TYPE":0,"CLASSIFICATION_TYPE":"U","NORAD_CAT_ID":54975,"ELEMENT_SET_NO":999,"REV_AT_EPOCH":17711,"BSTAR":0.0066825196,"MEAN_MOTION_DOT":0.00163663,"MEAN_MOTION_DDOT":0}]
